OBJECT_NAME,OBJECT_ID,EPOCH,MEAN_MOTION,ECCENTRICITY,INCLINATION,RA_OF_ASC_NODE,ARG_OF_PERICENTER,MEAN_ANOMALY,EPHEMERIS_TYPE,CLASSIFICATION_TYPE,NORAD_CAT_ID,ELEMENT_SET_NO,REV_AT_EPOCH,BSTAR,MEAN_MOTION_DOT,MEAN_MOTION_DDOT
CENTISPACE-2 S7,2026-060G,2026-07-07T02:41:57.921216,14.60070154,.00084379,54.9853,317.0936,288.6266,71.3810,0,U,68356,999,1567,.1563712E-3,.573E-5,0
CENTISPACE-2 S8,2026-060H,2026-07-09T23:33:23.778144,14.59842340,.00059614,54.9863,305.5893,304.7144,55.3286,0,U,68357,999,1609,.10733223E-3,.334E-5,0
CENTISPACE-2 S9,2026-060J,2026-07-10T07:06:17.317728,14.58821378,.00060557,54.9820,304.6669,279.6365,80.3943,0,U,68358,999,1613,.10486469E-3,.312E-5,0
CENTISPACE-2 S10,2026-060K,2026-07-09T20:41:37.238784,14.59001693,.0009207,54.9850,306.1494,270.2960,89.6977,0,U,68359,999,1607,.10622E-3,.32E-5,0
RASSVET-3 1,2026-061A,2026-07-10T23:49:13.209600,15.18022617,.0000335,82.2910,347.7303,145.9004,214.2251,0,U,68360,999,1718,.49546E-4,.1038E-4,0
RASSVET-3 2,2026-061B,2026-07-10T20:55:26.048928,15.47190621,.0001269,82.2920,346.7770,352.6985,7.4246,0,U,68361,999,1723,-.83112E-2,-.4005E-2,0
RASSVET-3 3,2026-061C,2026-07-09T12:42:06.968448,15.17951184,.00028382,82.2960,351.3256,135.4593,224.6869,0,U,68362,999,1683,.11769953E-3,.2419E-4,0
RASSVET-3 5,2026-061E,2026-07-09T17:36:18.193824,15.18010602,.00006341,82.2965,351.9507,150.4681,209.6588,0,U,68364,999,1681,.10089595E-3,.2081E-4,0
RASSVET-3 6,2026-061F,2026-07-09T17:30:08.283456,15.18015295,.00024453,82.2946,351.6088,120.2420,239.9056,0,U,68365,999,1683,.10846849E-3,.2235E-4,0
RASSVET-3 7,2026-061G,2026-07-09T20:42:58.898016,15.18003519,.00031726,82.2942,350.8273,91.4854,268.6743,0,U,68366,999,1689,.10429471E-3,.215E-4,0
RASSVET-3 8,2026-061H,2026-07-10T19:55:51.191904,15.27094365,.0008788,82.2929,347.3692,119.5000,240.7116,0,U,68367,999,1719,-.49869E-2,-.13014E-2,0
RASSVET-3 9,2026-061J,2026-07-10T22:11:08.064096,15.17977466,.0002254,82.2929,347.9817,222.8285,137.2773,0,U,68368,999,1716,.80013E-4,.1655E-4,0
RASSVET-3 10,2026-061K,2026-07-10T22:07:47.947008,15.76907965,.0006061,82.2869,344.5353,63.9632,296.2257,0,U,68369,999,1737,.27469E-3,.44474E-3,0
RASSVET-3 11,2026-061L,2026-07-10T19:29:58.505280,15.68286496,.0006313,82.2923,345.8798,87.1932,273.0051,0,U,68370,999,1728,.12168E-3,.13672E-3,0
RASSVET-3 12,2026-061M,2026-07-09T17:39:24.938784,15.18010946,.00009861,82.2950,351.6084,32.3762,327.7531,0,U,68371,999,1683,.10056471E-3,.2074E-4,0
RASSVET-3 13,2026-061N,2026-07-10T10:14:27.763872,15.23638898,.00048964,82.2963,350.5416,28.2277,331.9224,0,U,68372,999,1696,.82440413E-4,.2007E-4,0
RASSVET-3 14,2026-061P,2026-07-10T17:45:08.658720,15.73446226,.0007311,82.2926,346.1099,49.4502,310.7397,0,U,68373,999,1726,.2231E-3,.31079E-3,0
RASSVET-3 15,2026-061Q,2026-07-10T09:12:34.765344,15.27259822,.0007924,82.2950,347.5560,118.1437,242.0603,0,U,68374,999,1714,-.23272E-1,-.581868E-2,0
RASSVET-3 16,2026-061R,2026-07-10T19:08:29.173632,15.21274384,.0010448,82.2933,348.1279,172.6906,187.4484,0,U,68375,999,1714,.84408E-4,.192E-4,0
SUPERVIEW NEO-2 05,2026-062A,2026-07-07T13:29:06.732672,15.19717678,.0001669,97.4398,195.5775,84.9162,275.2263,0,U,68377,999,1574,.77616E-4,.159E-4,0
SUPERVIEW NEO-2 06,2026-062B,2026-07-07T13:29:06.634176,15.19718910,.0001427,97.4400,195.5825,108.8881,251.2509,0,U,68378,999,1574,.87797E-4,.1807E-4,0
STARLINK-36296,2026-063A,2026-07-11T04:00:01.998720,15.36940672,.0001897,97.2839,337.0151,84.1335,195.3247,0,U,68380,999,592,.27852E-3,.9984E-4,0
STARLINK-37111,2026-063B,2026-07-10T16:55:21.549792,15.33448619,.0000101,97.2849,333.5496,111.7372,248.3881,0,U,68381,999,1674,.39393E-3,.12665E-3,0
STARLINK-36946,2026-063C,2026-07-10T23:50:22.987104,15.33443310,.0000697,97.2865,333.9218,82.1251,278.0071,0,U,68382,999,1679,.49704E-3,.16004E-3,0
STARLINK-37121,2026-063D,2026-07-09T08:09:52.200864,15.33472832,.00015591,97.2834,332.1903,107.8541,252.2872,0,U,68383,999,1653,.63044724E-3,.20351E-3,0
STARLINK-37137,2026-063E,2026-07-10T15:56:37.368096,15.33467538,.0001104,97.2829,333.6024,275.8022,84.3095,0,U,68384,999,1674,.80789E-3,.26115E-3,0
STARLINK-37128,2026-063F,2026-07-10T16:31:51.589920,15.33459101,.0000484,97.2869,333.5715,297.0659,63.0534,0,U,68385,999,1674,.75686E-3,.24449E-3,0
STARLINK-37198,2026-063G,2026-07-10T17:11:00.786048,15.33446546,.0000878,97.2825,333.6854,247.7938,112.3212,0,U,68386,999,1675,.59533E-3,.19194E-3,0
STARLINK-37223,2026-063H,2026-07-11T04:59:41.743392,15.33471828,.0001427,97.2854,334.0873,78.7249,281.4154,0,U,68387,999,1682,.80229E-3,.25937E-3,0
STARLINK-37203,2026-063J,2026-07-10T23:54:17.938080,15.33443157,.0000797,97.2853,333.9179,87.0731,273.0603,0,U,68388,999,1679,.43486E-3,.13989E-3,0
