CENTISPACE-2 S7         
1 68356U 26060G   26188.11247594  .00000573  00000+0  15637-3 0  9999
2 68356  54.9853 317.0936 0008437 288.6266  71.3810 14.60070154 15670
CENTISPACE-2 S8         
1 68357U 26060H   26190.98152521  .00000334  00000+0  10733-3 0  9990
2 68357  54.9863 305.5893 0005961 304.7144  55.3286 14.59842340 16098
CENTISPACE-2 S9         
1 68358U 26060J   26191.29603377  .00000312  00000+0  10486-3 0  9997
2 68358  54.9820 304.6669 0006055 279.6365  80.3943 14.58821378 16133
CENTISPACE-2 S10        
1 68359U 26060K   26190.86223656  .00000320  00000+0  10622-3 0  9999
2 68359  54.9850 306.1494 0009207 270.2960  89.6977 14.59001693 16073
RASSVET-3 1             
1 68360U 26061A   26191.99251400  .00001038  00000+0  49546-4 0  9990
2 68360  82.2910 347.7303 0000335 145.9004 214.2251 15.18022617 17185
RASSVET-3 2             
1 68361U 26061B   26191.87182927 -.00400500  00000+0 -83112-2 0  9999
2 68361  82.2920 346.7770 0001269 352.6985   7.4246 15.47190621 17231
RASSVET-3 3             
1 68362U 26061C   26190.52924732  .00002419  00000+0  11770-3 0  9996
2 68362  82.2960 351.3256 0002838 135.4593 224.6869 15.17951184 16837
RASSVET-3 5             
1 68364U 26061E   26190.73354391  .00002081  00000+0  10090-3 0  9998
2 68364  82.2965 351.9507 0000634 150.4681 209.6588 15.18010602 16817
RASSVET-3 6             
1 68365U 26061F   26190.72926254  .00002235  00000+0  10847-3 0  9992
2 68365  82.2946 351.6088 0002445 120.2420 239.9056 15.18015295 16837
RASSVET-3 7             
1 68366U 26061G   26190.86318169  .00002150  00000+0  10429-3 0  9990
2 68366  82.2942 350.8273 0003172  91.4854 268.6743 15.18003519 16893
RASSVET-3 8             
1 68367U 26061H   26191.83045361 -.00130140  00000+0 -49869-2 0  9992
2 68367  82.2929 347.3692 0008788 119.5000 240.7116 15.27094365 17196
RASSVET-3 9             
1 68368U 26061J   26191.92439889  .00001655  00000+0  80013-4 0  9999
2 68368  82.2929 347.9817 0002254 222.8285 137.2773 15.17977466 17164
RASSVET-3 10            
1 68369U 26061K   26191.92208272  .00044474  00000+0  27469-3 0  9991
2 68369  82.2869 344.5353 0006061  63.9632 296.2257 15.76907965 17374
RASSVET-3 11            
1 68370U 26061L   26191.81248270  .00013672  00000+0  12168-3 0  9999
2 68370  82.2923 345.8798 0006313  87.1932 273.0051 15.68286496 17280
RASSVET-3 12            
1 68371U 26061M   26190.73570531  .00002074  00000+0  10056-3 0  9996
2 68371  82.2950 351.6084 0000986  32.3762 327.7531 15.18010946 16837
RASSVET-3 13            
1 68372U 26061N   26191.42671023  .00002007  00000+0  82440-4 0  9995
2 68372  82.2963 350.5416 0004896  28.2277 331.9224 15.23638898 16966
RASSVET-3 14            
1 68373U 26061P   26191.73968355  .00031079  00000+0  22310-3 0  9997
2 68373  82.2926 346.1099 0007311  49.4502 310.7397 15.73446226 17262
RASSVET-3 15            
1 68374U 26061Q   26191.38373571 -.00581868  00000+0 -23272-1 0  9993
2 68374  82.2950 347.5560 0007924 118.1437 242.0603 15.27259822 17146
RASSVET-3 16            
1 68375U 26061R   26191.79755988  .00001920  00000+0  84408-4 0  9990
2 68375  82.2933 348.1279 0010448 172.6906 187.4484 15.21274384 17146
SUPERVIEW NEO-2 05      
1 68377U 26062A   26188.56188348  .00001590  00000+0  77616-4 0  9990
2 68377  97.4398 195.5775 0001669  84.9162 275.2263 15.19717678 15740
SUPERVIEW NEO-2 06      
1 68378U 26062B   26188.56188234  .00001807  00000+0  87797-4 0  9997
2 68378  97.4400 195.5825 0001427 108.8881 251.2509 15.19718910 15744
STARLINK-36296          
1 68380U 26063A   26192.16668980  .00009984  00000+0  27852-3 0  9992
2 68380  97.2839 337.0151 0001897  84.1335 195.3247 15.36940672  5924
STARLINK-37111          
1 68381U 26063B   26191.70511053  .00012665  00000+0  39393-3 0  9993
2 68381  97.2849 333.5496 0000101 111.7372 248.3881 15.33448619 16740
STARLINK-36946          
1 68382U 26063C   26191.99332161  .00016004  00000+0  49704-3 0  9994
2 68382  97.2865 333.9218 0000697  82.1251 278.0071 15.33443310 16791
STARLINK-37121          
1 68383U 26063D   26190.34018751  .00020351  00000+0  63045-3 0  9993
2 68383  97.2834 332.1903 0001559 107.8541 252.2872 15.33472832 16531
STARLINK-37137          
1 68384U 26063E   26191.66432139  .00026115  00000+0  80789-3 0  9998
2 68384  97.2829 333.6024 0001104 275.8022  84.3095 15.33467538 16743
STARLINK-37128          
1 68385U 26063F   26191.68879155  .00024449  00000+0  75686-3 0  9992
2 68385  97.2869 333.5715 0000484 297.0659  63.0534 15.33459101 16745
STARLINK-37198          
1 68386U 26063G   26191.71598132  .00019194  00000+0  59533-3 0  9994
2 68386  97.2825 333.6854 0000878 247.7938 112.3212 15.33446546 16753
STARLINK-37223          
1 68387U 26063H   26192.20812203  .00025937  00000+0  80229-3 0  9996
2 68387  97.2854 334.0873 0001427  78.7249 281.4154 15.33471828 16822
STARLINK-37203          
1 68388U 26063J   26191.99604095  .00013989  00000+0  43486-3 0  9998
2 68388  97.2853 333.9179 0000797  87.0731 273.0603 15.33443157 16793
